[{"OBJECT_NAME":"IRIDIUM 124","OBJECT_ID":"2017-039H","EPOCH":"2026-03-05T19:39:24.228288","MEAN_MOTION":14.43270964,"ECCENTRICITY":0.00021142,"INCLINATION":86.4537,"RA_OF_ASC_NODE":333.5923,"ARG_OF_PERICENTER":84.3481,"MEAN_ANOMALY":275.7961,"EPHEMERIS_TYPE":0,"CLASSIFICATION_TYPE":"U","NORAD_CAT_ID":42810,"ELEMENT_SET_NO":999,"REV_AT_EPOCH":46020,"BSTAR":0.00016612825,"MEAN_MOTION_DOT":5.79e-6,"MEAN_MOTION_DDOT":0},{"OBJECT_NAME":"IRIDIUM 128","OBJECT_ID":"2017-039J","EPOCH":"2026-03-05T22:50:30.601248","MEAN_MOTION":14.34217883,"ECCENTRICITY":0.00020644,"INCLINATION":86.391,"RA_OF_ASC_NODE":68.3091,"ARG_OF_PERICENTER":95.4273,"MEAN_ANOMALY":264.7158,"EPHEMERIS_TYPE":0,"CLASSIFICATION_TYPE":"U","NORAD_CAT_ID":42811,"ELEMENT_SET_NO":999,"REV_AT_EPOCH":45518,"BSTAR":5.463045e-6,"MEAN_MOTION_DOT":3.5e-7,"MEAN_MOTION_DDOT":0},{"OBJECT_NAME":"IRIDIUM 121","OBJECT_ID":"2017-039K","EPOCH":"2026-03-05T23:31:14.937600","MEAN_MOTION":14.34217724,"ECCENTRICITY":0.00022409,"INCLINATION":86.3967,"RA_OF_ASC_NODE":36.7881,"ARG_OF_PERICENTER":89.8933,"MEAN_ANOMALY":270.2519,"EPHEMERIS_TYPE":0,"CLASSIFICATION_TYPE":"U","NORAD_CAT_ID":42812,"ELEMENT_SET_NO":999,"REV_AT_EPOCH":45503,"BSTAR":2.177778e-6,"MEAN_MOTION_DOT":2.6e-7,"MEAN_MOTION_DDOT":0},{"OBJECT_NAME":"IRIDIUM 133","OBJECT_ID":"2017-061A","EPOCH":"2026-03-05T23:36:10.671840","MEAN_MOTION":14.34217654,"ECCENTRICITY":0.00021488,"INCLINATION":86.3912,"RA_OF_ASC_NODE":68.4114,"ARG_OF_PERICENTER":90.1646,"MEAN_ANOMALY":269.9796,"EPHEMERIS_TYPE":0,"CLASSIFICATION_TYPE":"U","NORAD_CAT_ID":42955,"ELEMENT_SET_NO":999,"REV_AT_EPOCH":43998,"BSTAR":1.849258e-6,"MEAN_MOTION_DOT":2.5e-7,"MEAN_MOTION_DDOT":0},{"OBJECT_NAME":"IRIDIUM 100","OBJECT_ID":"2017-061B","EPOCH":"2026-03-05T23:27:02.632320","MEAN_MOTION":14.34217568,"ECCENTRICITY":0.0002141,"INCLINATION":86.391,"RA_OF_ASC_NODE":68.3349,"ARG_OF_PERICENTER":90.3476,"MEAN_ANOMALY":269.7965,"EPHEMERIS_TYPE":0,"CLASSIFICATION_TYPE":"U","NORAD_CAT_ID":42956,"ELEMENT_SET_NO":999,"REV_AT_EPOCH":43998,"BSTAR":-2.260979e-6,"MEAN_MOTION_DOT":1.3e-7,"MEAN_MOTION_DDOT":0},{"OBJECT_NAME":"IRIDIUM 122","OBJECT_ID":"2017-061C","EPOCH":"2026-03-05T22:41:22.400160","MEAN_MOTION":14.34217803,"ECCENTRICITY":0.00021215,"INCLINATION":86.391,"RA_OF_ASC_NODE":68.3481,"ARG_OF_PERICENTER":88.6641,"MEAN_ANOMALY":271.4798,"EPHEMERIS_TYPE":0,"CLASSIFICATION_TYPE":"U","NORAD_CAT_ID":42957,"ELEMENT_SET_NO":999,"REV_AT_EPOCH":43998,"BSTAR":2.159279e-6,"MEAN_MOTION_DOT":2.6e-7,"MEAN_MOTION_DDOT":0},{"OBJECT_NAME":"IRIDIUM 129","OBJECT_ID":"2017-061D","EPOCH":"2026-03-05T13:15:06.669792","MEAN_MOTION":14.34217836,"ECCENTRICITY":0.0002536,"INCLINATION":86.3911,"RA_OF_ASC_NODE":68.5788,"ARG_OF_PERICENTER":86.1398,"MEAN_ANOMALY":274.0088,"EPHEMERIS_TYPE":0,"CLASSIFICATION_TYPE":"U","NORAD_CAT_ID":42958,"ELEMENT_SET_NO":999,"REV_AT_EPOCH":43994,"BSTAR":-2.8186e-6,"MEAN_MOTION_DOT":1.2e-7,"MEAN_MOTION_DDOT":0},{"OBJECT_NAME":"IRIDIUM 119","OBJECT_ID":"2017-061E","EPOCH":"2026-03-05T22:32:14.644896","MEAN_MOTION":14.34217647,"ECCENTRICITY":0.00021192,"INCLINATION":86.3911,"RA_OF_ASC_NODE":68.4123,"ARG_OF_PERICENTER":85.4889,"MEAN_ANOMALY":274.6549,"EPHEMERIS_TYPE":0,"CLASSIFICATION_TYPE":"U","NORAD_CAT_ID":42959,"ELEMENT_SET_NO":999,"REV_AT_EPOCH":44001,"BSTAR":-2.564774e-6,"MEAN_MOTION_DOT":1.3e-7,"MEAN_MOTION_DDOT":0},{"OBJECT_NAME":"IRIDIUM 107","OBJECT_ID":"2017-061F","EPOCH":"2026-03-05T22:59:38.554368","MEAN_MOTION":14.34217847,"ECCENTRICITY":0.00018712,"INCLINATION":86.3911,"RA_OF_ASC_NODE":68.4247,"ARG_OF_PERICENTER":87.0076,"MEAN_ANOMALY":273.1334,"EPHEMERIS_TYPE":0,"CLASSIFICATION_TYPE":"U","NORAD_CAT_ID":42960,"ELEMENT_SET_NO":999,"REV_AT_EPOCH":44002,"BSTAR":1.5303e-7,"MEAN_MOTION_DOT":2.0e-7,"MEAN_MOTION_DDOT":0},{"OBJECT_NAME":"IRIDIUM 132","OBJECT_ID":"2017-061G","EPOCH":"2026-03-05T11:25:30.552384","MEAN_MOTION":14.34217915,"ECCENTRICITY":0.0002107,"INCLINATION":86.3911,"RA_OF_ASC_NODE":68.6068,"ARG_OF_PERICENTER":90.0586,"MEAN_ANOMALY":270.0851,"EPHEMERIS_TYPE":0,"CLASSIFICATION_TYPE":"U","NORAD_CAT_ID":42961,"ELEMENT_SET_NO":999,"REV_AT_EPOCH":43995,"BSTAR":1.0602e-5,"MEAN_MOTION_DOT":4.9e-7,"MEAN_MOTION_DDOT":0},{"OBJECT_NAME":"IRIDIUM 136","OBJECT_ID":"2017-061H","EPOCH":"2026-03-05T22:13:58.614240","MEAN_MOTION":14.34217601,"ECCENTRICITY":0.00020357,"INCLINATION":86.391,"RA_OF_ASC_NODE":68.4245,"ARG_OF_PERICENTER":86.9956,"MEAN_ANOMALY":273.1473,"EPHEMERIS_TYPE":0,"CLASSIFICATION_TYPE":"U","NORAD_CAT_ID":42962,"ELEMENT_SET_NO":999,"REV_AT_EPOCH":44003,"BSTAR":-6.448125e-6,"MEAN_MOTION_DOT":2.0e-8,"MEAN_MOTION_DDOT":0},{"OBJECT_NAME":"IRIDIUM 139","OBJECT_ID":"2017-061J","EPOCH":"2026-03-05T22:23:06.655488","MEAN_MOTION":14.34217552,"ECCENTRICITY":0.00019822,"INCLINATION":86.3912,"RA_OF_ASC_NODE":68.4823,"ARG_OF_PERICENTER":91.0764,"MEAN_ANOMALY":269.0659,"EPHEMERIS_TYPE":0,"CLASSIFICATION_TYPE":"U","NORAD_CAT_ID":42963,"ELEMENT_SET_NO":999,"REV_AT_EPOCH":44004,"BSTAR":-4.511223e-6,"MEAN_MOTION_DOT":7.0e-8,"MEAN_MOTION_DDOT":0},{"OBJECT_NAME":"IRIDIUM 125","OBJECT_ID":"2017-061K","EPOCH":"2026-03-05T23:45:18.553248","MEAN_MOTION":14.34217601,"ECCENTRICITY":0.00018527,"INCLINATION":86.3913,"RA_OF_ASC_NODE":68.5177,"ARG_OF_PERICENTER":74.2571,"MEAN_ANOMALY":285.8829,"EPHEMERIS_TYPE":0,"CLASSIFICATION_TYPE":"U","NORAD_CAT_ID":42964,"ELEMENT_SET_NO":999,"REV_AT_EPOCH":44006,"BSTAR":-5.381196e-6,"MEAN_MOTION_DOT":5.0e-8,"MEAN_MOTION_DDOT":0},{"OBJECT_NAME":"IRIDIUM 135","OBJECT_ID":"2017-083A","EPOCH":"2026-03-05T21:27:35.488800","MEAN_MOTION":14.34219348,"ECCENTRICITY":0.00021936,"INCLINATION":86.402,"RA_OF_ASC_NODE":5.1781,"ARG_OF_PERICENTER":86.0398,"MEAN_ANOMALY":274.1049,"EPHEMERIS_TYPE":0,"CLASSIFICATION_TYPE":"U","NORAD_CAT_ID":43070,"ELEMENT_SET_NO":999,"REV_AT_EPOCH":42934,"BSTAR":0.00012115233,"MEAN_MOTION_DOT":3.59e-6,"MEAN_MOTION_DDOT":0},{"OBJECT_NAME":"IRIDIUM 138","OBJECT_ID":"2017-083B","EPOCH":"2026-03-05T22:04:07.201056","MEAN_MOTION":14.34217392,"ECCENTRICITY":0.00021895,"INCLINATION":86.403,"RA_OF_ASC_NODE":4.8477,"ARG_OF_PERICENTER":74.9095,"MEAN_ANOMALY":285.2343,"EPHEMERIS_TYPE":0,"CLASSIFICATION_TYPE":"U","NORAD_CAT_ID":43071,"ELEMENT_SET_NO":999,"REV_AT_EPOCH":42933,"BSTAR":-1.3481033e-5,"MEAN_MOTION_DOT":-1.8e-7,"MEAN_MOTION_DDOT":0},{"OBJECT_NAME":"IRIDIUM 116","OBJECT_ID":"2017-083C","EPOCH":"2026-03-05T21:18:27.157248","MEAN_MOTION":14.34217861,"ECCENTRICITY":0.0002082,"INCLINATION":86.4021,"RA_OF_ASC_NODE":5.1679,"ARG_OF_PERICENTER":94.2933,"MEAN_ANOMALY":265.8501,"EPHEMERIS_TYPE":0,"CLASSIFICATION_TYPE":"U","NORAD_CAT_ID":43072,"ELEMENT_SET_NO":999,"REV_AT_EPOCH":42936,"BSTAR":7.582202e-6,"MEAN_MOTION_DOT":4.1e-7,"MEAN_MOTION_DDOT":0},{"OBJECT_NAME":"IRIDIUM 130","OBJECT_ID":"2017-083D","EPOCH":"2026-03-05T22:13:15.107520","MEAN_MOTION":14.34217967,"ECCENTRICITY":0.00018895,"INCLINATION":86.4026,"RA_OF_ASC_NODE":5.4171,"ARG_OF_PERICENTER":88.6775,"MEAN_ANOMALY":271.4637,"EPHEMERIS_TYPE":0,"CLASSIFICATION_TYPE":"U","NORAD_CAT_ID":43073,"ELEMENT_SET_NO":999,"REV_AT_EPOCH":42931,"BSTAR":4.2995106e-5,"MEAN_MOTION_DOT":1.4e-6,"MEAN_MOTION_DDOT":0}]
