IRIDIUM 124             
1 42810U 17039H   26064.81903042  .00000579  00000+0  16613-3 0  9990
2 42810  86.4537 333.5923 0002114  84.3481 275.7961 14.43270964460203
IRIDIUM 128             
1 42811U 17039J   26064.95174307  .00000035  00000+0  54630-5 0  9990
2 42811  86.3910  68.3091 0002064  95.4273 264.7158 14.34217883455181
IRIDIUM 121             
1 42812U 17039K   26064.98003400  .00000026  00000+0  21778-5 0  9996
2 42812  86.3967  36.7881 0002240  89.8933 270.2519 14.34217724455037
IRIDIUM 133             
1 42955U 17061A   26064.98345685  .00000025  00000+0  18493-5 0  9992
2 42955  86.3912  68.4114 0002148  90.1646 269.9796 14.34217654439989
IRIDIUM 100             
1 42956U 17061B   26064.97711380  .00000013  00000+0 -22610-5 0  9995
2 42956  86.3910  68.3349 0002141  90.3476 269.7965 14.34217568439983
IRIDIUM 122             
1 42957U 17061C   26064.94539815  .00000026  00000+0  21593-5 0  9996
2 42957  86.3910  68.3481 0002121  88.6641 271.4798 14.34217803439989
IRIDIUM 129             
1 42958U 17061D   26064.55216053  .00000012  00000+0 -28186-5 0  9991
2 42958  86.3911  68.5788 0002536  86.1398 274.0088 14.34217836439948
IRIDIUM 119             
1 42959U 17061E   26064.93905839  .00000013  00000+0 -25648-5 0  9992
2 42959  86.3911  68.4123 0002119  85.4889 274.6549 14.34217647440013
IRIDIUM 107             
1 42960U 17061F   26064.95808512  .00000020  00000+0  15303-6 0  9991
2 42960  86.3911  68.4247 0001871  87.0076 273.1334 14.34217847440021
IRIDIUM 132             
1 42961U 17061G   26064.47604806  .00000049  00000+0  10602-4 0  9995
2 42961  86.3911  68.6068 0002107  90.0586 270.0851 14.34217915439954
IRIDIUM 136             
1 42962U 17061H   26064.92637285  .00000002  00000+0 -64481-5 0  9998
2 42962  86.3910  68.4245 0002035  86.9956 273.1473 14.34217601440031
IRIDIUM 139             
1 42963U 17061J   26064.93271592  .00000007  00000+0 -45112-5 0  9990
2 42963  86.3912  68.4823 0001982  91.0764 269.0659 14.34217552440046
IRIDIUM 125             
1 42964U 17061K   26064.98979807  .00000005  00000+0 -53812-5 0  9994
2 42964  86.3913  68.5177 0001852  74.2571 285.8829 14.34217601440068
IRIDIUM 135             
1 43070U 17083A   26064.89416075  .00000359  00000+0  12115-3 0  9990
2 43070  86.4020   5.1781 0002193  86.0398 274.1049 14.34219348429345
IRIDIUM 138             
1 43071U 17083B   26064.91952779 -.00000018  00000+0 -13481-4 0  9992
2 43071  86.4030   4.8477 0002189  74.9095 285.2343 14.34217392429336
IRIDIUM 116             
1 43072U 17083C   26064.88781432  .00000041  00000+0  75822-5 0  9997
2 43072  86.4021   5.1679 0002082  94.2933 265.8501 14.34217861429367
IRIDIUM 130             
1 43073U 17083D   26064.92586930  .00000140  00000+0  42995-4 0  9993
2 43073  86.4026   5.4171 0001889  88.6775 271.4637 14.34217967429313
